[{"OBJECT_NAME":"SL-16 R/B","OBJECT_ID":"1993-059B","EPOCH":"2026-03-08T03:15:38.242656","MEAN_MOTION":14.1723187,"ECCENTRICITY":0.0018612,"INCLINATION":70.9926,"RA_OF_ASC_NODE":14.4021,"ARG_OF_PERICENTER":218.7778,"MEAN_ANOMALY":141.2011,"EPHEMERIS_TYPE":0,"CLASSIFICATION_TYPE":"U","NORAD_CAT_ID":22803,"ELEMENT_SET_NO":999,"REV_AT_EPOCH":67931,"BSTAR":-5.3018e-5,"MEAN_MOTION_DOT":-1.55e-6,"MEAN_MOTION_DDOT":0},{"OBJECT_NAME":"ARIANE 40 R/B","OBJECT_ID":"1993-061H","EPOCH":"2026-03-08T03:53:42.968832","MEAN_MOTION":14.32860212,"ECCENTRICITY":0.0009562,"INCLINATION":98.4918,"RA_OF_ASC_NODE":136.0801,"ARG_OF_PERICENTER":290.2131,"MEAN_ANOMALY":69.8024,"EPHEMERIS_TYPE":0,"CLASSIFICATION_TYPE":"U","NORAD_CAT_ID":22830,"ELEMENT_SET_NO":999,"REV_AT_EPOCH":69388,"BSTAR":0.00012003,"MEAN_MOTION_DOT":2.84e-6,"MEAN_MOTION_DDOT":0},{"OBJECT_NAME":"COSMOS 2278","OBJECT_ID":"1994-023A","EPOCH":"2026-03-07T18:12:48.869280","MEAN_MOTION":14.14378193,"ECCENTRICITY":0.00079023,"INCLINATION":71.055,"RA_OF_ASC_NODE":179.1363,"ARG_OF_PERICENTER":17.1842,"MEAN_ANOMALY":342.9547,"EPHEMERIS_TYPE":0,"CLASSIFICATION_TYPE":"U","NORAD_CAT_ID":23087,"ELEMENT_SET_NO":999,"REV_AT_EPOCH":64453,"BSTAR":0.00013189115,"MEAN_MOTION_DOT":2.05e-6,"MEAN_MOTION_DDOT":0},{"OBJECT_NAME":"SL-16 R/B","OBJECT_ID":"1994-023B","EPOCH":"2026-03-08T03:49:56.839296","MEAN_MOTION":14.1501247,"ECCENTRICITY":0.0005711,"INCLINATION":70.9986,"RA_OF_ASC_NODE":74.1006,"ARG_OF_PERICENTER":287.0696,"MEAN_ANOMALY":72.9801,"EPHEMERIS_TYPE":0,"CLASSIFICATION_TYPE":"U","NORAD_CAT_ID":23088,"ELEMENT_SET_NO":999,"REV_AT_EPOCH":64587,"BSTAR":-8.945e-5,"MEAN_MOTION_DOT":-2.21e-6,"MEAN_MOTION_DDOT":0},{"OBJECT_NAME":"SL-16 R/B","OBJECT_ID":"1994-074B","EPOCH":"2026-03-08T02:29:12.804288","MEAN_MOTION":14.79406268,"ECCENTRICITY":0.0005664,"INCLINATION":97.7111,"RA_OF_ASC_NODE":97.9855,"ARG_OF_PERICENTER":216.4629,"MEAN_ANOMALY":210.5776,"EPHEMERIS_TYPE":0,"CLASSIFICATION_TYPE":"U","NORAD_CAT_ID":23343,"ELEMENT_SET_NO":999,"REV_AT_EPOCH":68701,"BSTAR":0.00010076,"MEAN_MOTION_DOT":7.02e-6,"MEAN_MOTION_DDOT":0},{"OBJECT_NAME":"SL-16 R/B","OBJECT_ID":"1994-077B","EPOCH":"2026-03-08T03:24:20.843424","MEAN_MOTION":14.15561164,"ECCENTRICITY":0.0003192,"INCLINATION":70.9853,"RA_OF_ASC_NODE":355.7448,"ARG_OF_PERICENTER":214.3735,"MEAN_ANOMALY":145.7182,"EPHEMERIS_TYPE":0,"CLASSIFICATION_TYPE":"U","NORAD_CAT_ID":23405,"ELEMENT_SET_NO":999,"REV_AT_EPOCH":61601,"BSTAR":-3.353e-5,"MEAN_MOTION_DOT":-1.13e-6,"MEAN_MOTION_DDOT":0},{"OBJECT_NAME":"ARIANE 40+ R/B","OBJECT_ID":"1995-021B","EPOCH":"2026-03-08T03:25:49.965024","MEAN_MOTION":14.39771387,"ECCENTRICITY":0.0007588,"INCLINATION":98.45,"RA_OF_ASC_NODE":138.6465,"ARG_OF_PERICENTER":140.5109,"MEAN_ANOMALY":249.64,"EPHEMERIS_TYPE":0,"CLASSIFICATION_TYPE":"U","NORAD_CAT_ID":23561,"ELEMENT_SET_NO":999,"REV_AT_EPOCH":61902,"BSTAR":0.00014737,"MEAN_MOTION_DOT":4.19e-6,"MEAN_MOTION_DDOT":0},{"OBJECT_NAME":"SL-16 R/B","OBJECT_ID":"1995-058B","EPOCH":"2026-03-08T01:52:33.469824","MEAN_MOTION":14.15494257,"ECCENTRICITY":0.0010863,"INCLINATION":71.0217,"RA_OF_ASC_NODE":183.6379,"ARG_OF_PERICENTER":128.6757,"MEAN_ANOMALY":231.534,"EPHEMERIS_TYPE":0,"CLASSIFICATION_TYPE":"U","NORAD_CAT_ID":23705,"ELEMENT_SET_NO":999,"REV_AT_EPOCH":56762,"BSTAR":0.00015897,"MEAN_MOTION_DOT":2.63e-6,"MEAN_MOTION_DDOT":0},{"OBJECT_NAME":"SL-16 R/B","OBJECT_ID":"1996-051B","EPOCH":"2026-03-07T18:11:38.090400","MEAN_MOTION":14.12415165,"ECCENTRICITY":0.00152415,"INCLINATION":70.7601,"RA_OF_ASC_NODE":179.3268,"ARG_OF_PERICENTER":150.9176,"MEAN_ANOMALY":209.2796,"EPHEMERIS_TYPE":0,"CLASSIFICATION_TYPE":"U","NORAD_CAT_ID":24298,"ELEMENT_SET_NO":999,"REV_AT_EPOCH":52137,"BSTAR":9.8334598e-5,"MEAN_MOTION_DOT":1.32e-6,"MEAN_MOTION_DDOT":0},{"OBJECT_NAME":"ORBVIEW 2 (SEASTAR)","OBJECT_ID":"1997-037A","EPOCH":"2026-03-08T00:34:20.658144","MEAN_MOTION":14.35493739,"ECCENTRICITY":0.0003123,"INCLINATION":98.8564,"RA_OF_ASC_NODE":231.2915,"ARG_OF_PERICENTER":75.418,"MEAN_ANOMALY":284.7351,"EPHEMERIS_TYPE":0,"CLASSIFICATION_TYPE":"U","NORAD_CAT_ID":24883,"ELEMENT_SET_NO":999,"REV_AT_EPOCH":50823,"BSTAR":0.00017291,"MEAN_MOTION_DOT":4.51e-6,"MEAN_MOTION_DDOT":0},{"OBJECT_NAME":"SL-16 R/B","OBJECT_ID":"1998-043G","EPOCH":"2026-03-08T02:49:41.572128","MEAN_MOTION":14.26049346,"ECCENTRICITY":0.0010297,"INCLINATION":98.8251,"RA_OF_ASC_NODE":20.4701,"ARG_OF_PERICENTER":24.8767,"MEAN_ANOMALY":335.2907,"EPHEMERIS_TYPE":0,"CLASSIFICATION_TYPE":"U","NORAD_CAT_ID":25400,"ELEMENT_SET_NO":999,"REV_AT_EPOCH":43876,"BSTAR":6.3098e-5,"MEAN_MOTION_DOT":1.05e-6,"MEAN_MOTION_DDOT":0},{"OBJECT_NAME":"SL-16 R/B","OBJECT_ID":"1998-045B","EPOCH":"2026-03-07T17:40:52.490496","MEAN_MOTION":14.16189466,"ECCENTRICITY":0.00066249,"INCLINATION":71.0114,"RA_OF_ASC_NODE":185.6803,"ARG_OF_PERICENTER":11.1404,"MEAN_ANOMALY":348.9865,"EPHEMERIS_TYPE":0,"CLASSIFICATION_TYPE":"U","NORAD_CAT_ID":25407,"ELEMENT_SET_NO":999,"REV_AT_EPOCH":42682,"BSTAR":5.2519962e-5,"MEAN_MOTION_DOT":5.6e-7,"MEAN_MOTION_DDOT":0},{"OBJECT_NAME":"ISS (ZARYA)","OBJECT_ID":"1998-067A","EPOCH":"2026-03-07T18:30:03.892896","MEAN_MOTION":15.4851426,"ECCENTRICITY":0.00081173,"INCLINATION":51.632,"RA_OF_ASC_NODE":81.8427,"ARG_OF_PERICENTER":167.9196,"MEAN_ANOMALY":192.1989,"EPHEMERIS_TYPE":0,"CLASSIFICATION_TYPE":"U","NORAD_CAT_ID":25544,"ELEMENT_SET_NO":999,"REV_AT_EPOCH":55603,"BSTAR":0.00026707368,"MEAN_MOTION_DOT":0.00014056,"MEAN_MOTION_DDOT":0},{"OBJECT_NAME":"CZ-4B R/B","OBJECT_ID":"1999-025C","EPOCH":"2026-03-08T02:43:21.900288","MEAN_MOTION":14.1826505,"ECCENTRICITY":0.0036835,"INCLINATION":98.663,"RA_OF_ASC_NODE":111.4324,"ARG_OF_PERICENTER":351.1867,"MEAN_ANOMALY":70.2929,"EPHEMERIS_TYPE":0,"CLASSIFICATION_TYPE":"U","NORAD_CAT_ID":25732,"ELEMENT_SET_NO":999,"REV_AT_EPOCH":38794,"BSTAR":5.4325e-5,"MEAN_MOTION_DOT":6.9e-7,"MEAN_MOTION_DDOT":0},{"OBJECT_NAME":"OKEAN-O","OBJECT_ID":"1999-039A","EPOCH":"2026-03-08T03:57:29.018016","MEAN_MOTION":14.80332974,"ECCENTRICITY":0.0001275,"INCLINATION":97.9445,"RA_OF_ASC_NODE":127.072,"ARG_OF_PERICENTER":69.6204,"MEAN_ANOMALY":290.5144,"EPHEMERIS_TYPE":0,"CLASSIFICATION_TYPE":"U","NORAD_CAT_ID":25860,"ELEMENT_SET_NO":999,"REV_AT_EPOCH":43416,"BSTAR":0.0001329,"MEAN_MOTION_DOT":9.61e-6,"MEAN_MOTION_DDOT":0},{"OBJECT_NAME":"SL-16 R/B","OBJECT_ID":"1999-039B","EPOCH":"2026-03-08T03:30:33.259392","MEAN_MOTION":14.81729624,"ECCENTRICITY":0.0013456,"INCLINATION":97.9969,"RA_OF_ASC_NODE":126.2453,"ARG_OF_PERICENTER":261.655,"MEAN_ANOMALY":98.3137,"EPHEMERIS_TYPE":0,"CLASSIFICATION_TYPE":"U","NORAD_CAT_ID":25861,"ELEMENT_SET_NO":999,"REV_AT_EPOCH":43663,"BSTAR":0.00011618,"MEAN_MOTION_DOT":8.63e-6,"MEAN_MOTION_DDOT":0},{"OBJECT_NAME":"DELTA 2 R/B","OBJECT_ID":"1999-041E","EPOCH":"2026-03-08T02:19:15.661056","MEAN_MOTION":14.11833684,"ECCENTRICITY":0.0502343,"INCLINATION":51.7631,"RA_OF_ASC_NODE":307.6435,"ARG_OF_PERICENTER":343.736,"MEAN_ANOMALY":14.7942,"EPHEMERIS_TYPE":0,"CLASSIFICATION_TYPE":"U","NORAD_CAT_ID":25876,"ELEMENT_SET_NO":999,"REV_AT_EPOCH":36280,"BSTAR":0.00029297,"MEAN_MOTION_DOT":1.585e-5,"MEAN_MOTION_DDOT":0}]
