SL-16 R/B               
1 22803U 93059B   26067.13585929 -.00000155  00000+0 -53018-4 0  9997
2 22803  70.9926  14.4021 0018612 218.7778 141.2011 14.17231870679310
ARIANE 40 R/B           
1 22830U 93061H   26067.16230288  .00000284  00000+0  12003-3 0  9997
2 22830  98.4918 136.0801 0009562 290.2131  69.8024 14.32860212693887
COSMOS 2278             
1 23087U 94023A   26066.75889895  .00000205  00000+0  13189-3 0  9998
2 23087  71.0550 179.1363 0007902  17.1842 342.9547 14.14378193644538
SL-16 R/B               
1 23088U 94023B   26067.15968564 -.00000221  00000+0 -89450-4 0  9990
2 23088  70.9986  74.1006 0005711 287.0696  72.9801 14.15012470645874
SL-16 R/B               
1 23343U 94074B   26067.10362042  .00000702  00000+0  10076-3 0  9993
2 23343  97.7111  97.9855 0005664 216.4629 210.5776 14.79406268687014
SL-16 R/B               
1 23405U 94077B   26067.14190791 -.00000113  00000+0 -33530-4 0  9998
2 23405  70.9853 355.7448 0003192 214.3735 145.7182 14.15561164616010
ARIANE 40+ R/B          
1 23561U 95021B   26067.14293941  .00000419  00000+0  14737-3 0  9996
2 23561  98.4500 138.6465 0007588 140.5109 249.6400 14.39771387619029
SL-16 R/B               
1 23705U 95058B   26067.07816516  .00000263  00000+0  15897-3 0  9992
2 23705  71.0217 183.6379 0010863 128.6757 231.5340 14.15494257567624
SL-16 R/B               
1 24298U 96051B   26066.75807975  .00000132  00000+0  98335-4 0  9991
2 24298  70.7601 179.3268 0015241 150.9176 209.2796 14.12415165521379
ORBVIEW 2 (SEASTAR)     
1 24883U 97037A   26067.02385021  .00000451  00000+0  17291-3 0  9995
2 24883  98.8564 231.2915 0003123  75.4180 284.7351 14.35493739508230
SL-16 R/B               
1 25400U 98043G   26067.11784227  .00000105  00000+0  63098-4 0  9993
2 25400  98.8251  20.4701 0010297  24.8767 335.2907 14.26049346438769
SL-16 R/B               
1 25407U 98045B   26066.73671864  .00000056  00000+0  52520-4 0  9994
2 25407  71.0114 185.6803 0006624  11.1404 348.9865 14.16189466426825
ISS (ZARYA)             
1 25544U 98067A   26066.77087839  .00014056  00000+0  26707-3 0  9999
2 25544  51.6320  81.8427 0008117 167.9196 192.1989 15.48514260556039
CZ-4B R/B               
1 25732U 99025C   26067.11344792  .00000069  00000+0  54325-4 0  9993
2 25732  98.6630 111.4324 0036835 351.1867  70.2929 14.18265050387947
OKEAN-O                 
1 25860U 99039A   26067.16491919  .00000961  00000+0  13290-3 0  9995
2 25860  97.9445 127.0720 0001275  69.6204 290.5144 14.80332974434166
SL-16 R/B               
1 25861U 99039B   26067.14621828  .00000863  00000+0  11618-3 0  9991
2 25861  97.9969 126.2453 0013456 261.6550  98.3137 14.81729624436637
DELTA 2 R/B             
1 25876U 99041E   26067.09670904  .00001585  00000+0  29297-3 0  9997
2 25876  51.7631 307.6435 0502343 343.7360  14.7942 14.11833684362809
